CCSDS_OMM_VERS = 2.0
CREATION_DATE  = 
ORIGINATOR     = 

OBJECT_NAME    = ISS (ZARYA)
OBJECT_ID      = 1998-067A
CENTER_NAME    = EARTH
REF_FRAME      = TEME
TIME_SYSTEM    = UTC
MEAN_ELEMENT_THEORY = SGP/SGP4

EPOCH          = 2025-11-16T08:28:03.500256
MEAN_MOTION    = 15.49717811
ECCENTRICITY   = .0004159
INCLINATION    = 51.6328
RA_OF_ASC_NODE = 273.0879
ARG_OF_PERICENTER = 76.5981
MEAN_ANOMALY   = 283.5471

EPHEMERIS_TYPE = 0
CLASSIFICATION_TYPE = U
NORAD_CAT_ID   = 25544
ELEMENT_SET_NO = 999
REV_AT_EPOCH   = 53876
BSTAR          = .31117E-3
MEAN_MOTION_DOT = .17169E-3
MEAN_MOTION_DDOT = 0

CCSDS_OMM_VERS = 2.0
CREATION_DATE  = 
ORIGINATOR     = 

OBJECT_NAME    = CSS (TIANHE)
OBJECT_ID      = 2021-035A
CENTER_NAME    = EARTH
REF_FRAME      = TEME
TIME_SYSTEM    = UTC
MEAN_ELEMENT_THEORY = SGP/SGP4

EPOCH          = 2025-11-16T07:38:43.971072
MEAN_MOTION    = 15.59141599
ECCENTRICITY   = .0006596
INCLINATION    = 41.4652
RA_OF_ASC_NODE = 177.0260
ARG_OF_PERICENTER = 172.0762
MEAN_ANOMALY   = 188.0182

EPHEMERIS_TYPE = 0
CLASSIFICATION_TYPE = U
NORAD_CAT_ID   = 48274
ELEMENT_SET_NO = 999
REV_AT_EPOCH   = 25990
BSTAR          = .29615E-3
MEAN_MOTION_DOT = .23595E-3
MEAN_MOTION_DDOT = 0

CCSDS_OMM_VERS = 2.0
CREATION_DATE  = 
ORIGINATOR     = 

OBJECT_NAME    = ISS (NAUKA)
OBJECT_ID      = 2021-066A
CENTER_NAME    = EARTH
REF_FRAME      = TEME
TIME_SYSTEM    = UTC
MEAN_ELEMENT_THEORY = SGP/SGP4

EPOCH          = 2025-11-14T05:23:38.944320
MEAN_MOTION    = 15.49650045
ECCENTRICITY   = .00041947
INCLINATION    = 51.6329
RA_OF_ASC_NODE = 283.6283
ARG_OF_PERICENTER = 68.4296
MEAN_ANOMALY   = 291.7139

EPHEMERIS_TYPE = 0
CLASSIFICATION_TYPE = U
NORAD_CAT_ID   = 49044
ELEMENT_SET_NO = 999
REV_AT_EPOCH   = 23044
BSTAR          = .24659261E-3
MEAN_MOTION_DOT = .13472E-3
MEAN_MOTION_DDOT = 0

CCSDS_OMM_VERS = 2.0
CREATION_DATE  = 
ORIGINATOR     = 

OBJECT_NAME    = FREGAT DEB
OBJECT_ID      = 2011-037PF
CENTER_NAME    = EARTH
REF_FRAME      = TEME
TIME_SYSTEM    = UTC
MEAN_ELEMENT_THEORY = SGP/SGP4

EPOCH          = 2025-11-15T14:34:39.955296
MEAN_MOTION    = 12.34069817
ECCENTRICITY   = .0878579
INCLINATION    = 51.6256
RA_OF_ASC_NODE = 279.6718
ARG_OF_PERICENTER = 165.3738
MEAN_ANOMALY   = 197.4384

EPHEMERIS_TYPE = 0
CLASSIFICATION_TYPE = U
NORAD_CAT_ID   = 49271
ELEMENT_SET_NO = 999
REV_AT_EPOCH   = 19858
BSTAR          = .22981E-1
MEAN_MOTION_DOT = .10642E-3
MEAN_MOTION_DDOT = 0

CCSDS_OMM_VERS = 2.0
CREATION_DATE  = 
ORIGINATOR     = 

OBJECT_NAME    = CSS (WENTIAN)
OBJECT_ID      = 2022-085A
CENTER_NAME    = EARTH
REF_FRAME      = TEME
TIME_SYSTEM    = UTC
MEAN_ELEMENT_THEORY = SGP/SGP4

EPOCH          = 2025-11-14T00:20:46.425408
MEAN_MOTION    = 15.61166938
ECCENTRICITY   = .00038837
INCLINATION    = 41.4648
RA_OF_ASC_NODE = 191.0371
ARG_OF_PERICENTER = 22.4689
MEAN_ANOMALY   = 337.6319

EPHEMERIS_TYPE = 0
CLASSIFICATION_TYPE = U
NORAD_CAT_ID   = 53239
ELEMENT_SET_NO = 999
REV_AT_EPOCH   = 17384
BSTAR          = .36298215E-3
MEAN_MOTION_DOT = .31369E-3
MEAN_MOTION_DDOT = 0

CCSDS_OMM_VERS = 2.0
CREATION_DATE  = 
ORIGINATOR     = 

OBJECT_NAME    = CSS (MENGTIAN)
OBJECT_ID      = 2022-143A
CENTER_NAME    = EARTH
REF_FRAME      = TEME
TIME_SYSTEM    = UTC
MEAN_ELEMENT_THEORY = SGP/SGP4

EPOCH          = 2025-11-14T00:20:46.425408
MEAN_MOTION    = 15.61166938
ECCENTRICITY   = .00038837
INCLINATION    = 41.4648
RA_OF_ASC_NODE = 191.0371
ARG_OF_PERICENTER = 22.4689
MEAN_ANOMALY   = 337.6319

EPHEMERIS_TYPE = 0
CLASSIFICATION_TYPE = U
NORAD_CAT_ID   = 54216
ELEMENT_SET_NO = 999
REV_AT_EPOCH   = 15864
BSTAR          = .36298215E-3
MEAN_MOTION_DOT = .31369E-3
MEAN_MOTION_DDOT = 0

CCSDS_OMM_VERS = 2.0
CREATION_DATE  = 
ORIGINATOR     = 

OBJECT_NAME    = SOYUZ-MS 27
OBJECT_ID      = 2025-072A
CENTER_NAME    = EARTH
REF_FRAME      = TEME
TIME_SYSTEM    = UTC
MEAN_ELEMENT_THEORY = SGP/SGP4

EPOCH          = 2025-11-14T05:23:38.944320
MEAN_MOTION    = 15.49650045
ECCENTRICITY   = .00041947
INCLINATION    = 51.6329
RA_OF_ASC_NODE = 283.6283
ARG_OF_PERICENTER = 68.4296
MEAN_ANOMALY   = 291.7139

EPHEMERIS_TYPE = 0
CLASSIFICATION_TYPE = U
NORAD_CAT_ID   = 63520
ELEMENT_SET_NO = 999
REV_AT_EPOCH   = 2020
BSTAR          = .24659261E-3
MEAN_MOTION_DOT = .13472E-3
MEAN_MOTION_DDOT = 0

CCSDS_OMM_VERS = 2.0
CREATION_DATE  = 
ORIGINATOR     = 

OBJECT_NAME    = SHENZHOU-20 (SZ-20)
OBJECT_ID      = 2025-082A
CENTER_NAME    = EARTH
REF_FRAME      = TEME
TIME_SYSTEM    = UTC
MEAN_ELEMENT_THEORY = SGP/SGP4

EPOCH          = 2025-11-14T00:20:46.425408
MEAN_MOTION    = 15.61166938
ECCENTRICITY   = .00038837
INCLINATION    = 41.4648
RA_OF_ASC_NODE = 191.0371
ARG_OF_PERICENTER = 22.4689
MEAN_ANOMALY   = 337.6319

EPHEMERIS_TYPE = 0
CLASSIFICATION_TYPE = U
NORAD_CAT_ID   = 63632
ELEMENT_SET_NO = 999
REV_AT_EPOCH   = 25530
BSTAR          = .36298215E-3
MEAN_MOTION_DOT = .31369E-3
MEAN_MOTION_DDOT = 0

CCSDS_OMM_VERS = 2.0
CREATION_DATE  = 
ORIGINATOR     = 

OBJECT_NAME    = PROGRESS-MS 31
OBJECT_ID      = 2025-146A
CENTER_NAME    = EARTH
REF_FRAME      = TEME
TIME_SYSTEM    = UTC
MEAN_ELEMENT_THEORY = SGP/SGP4

EPOCH          = 2025-11-14T05:23:38.944320
MEAN_MOTION    = 15.49650045
ECCENTRICITY   = .00041947
INCLINATION    = 51.6329
RA_OF_ASC_NODE = 283.6283
ARG_OF_PERICENTER = 68.4296
MEAN_ANOMALY   = 291.7139

EPHEMERIS_TYPE = 0
CLASSIFICATION_TYPE = U
NORAD_CAT_ID   = 64751
ELEMENT_SET_NO = 999
REV_AT_EPOCH   = 675
BSTAR          = .24659261E-3
MEAN_MOTION_DOT = .13472E-3
MEAN_MOTION_DDOT = 0

CCSDS_OMM_VERS = 2.0
CREATION_DATE  = 
ORIGINATOR     = 

OBJECT_NAME    = TIANZHOU-9
OBJECT_ID      = 2025-149A
CENTER_NAME    = EARTH
REF_FRAME      = TEME
TIME_SYSTEM    = UTC
MEAN_ELEMENT_THEORY = SGP/SGP4

EPOCH          = 2025-11-14T00:20:46.425408
MEAN_MOTION    = 15.61166938
ECCENTRICITY   = .00038837
INCLINATION    = 41.4648
RA_OF_ASC_NODE = 191.0371
ARG_OF_PERICENTER = 22.4689
MEAN_ANOMALY   = 337.6319

EPHEMERIS_TYPE = 0
CLASSIFICATION_TYPE = U
NORAD_CAT_ID   = 64786
ELEMENT_SET_NO = 999
REV_AT_EPOCH   = 25530
BSTAR          = .36298215E-3
MEAN_MOTION_DOT = .31369E-3
MEAN_MOTION_DDOT = 0

CCSDS_OMM_VERS = 2.0
CREATION_DATE  = 
ORIGINATOR     = 

OBJECT_NAME    = CREW DRAGON 11
OBJECT_ID      = 2025-166A
CENTER_NAME    = EARTH
REF_FRAME      = TEME
TIME_SYSTEM    = UTC
MEAN_ELEMENT_THEORY = SGP/SGP4

EPOCH          = 2025-11-14T05:23:38.944320
MEAN_MOTION    = 15.49650045
ECCENTRICITY   = .00041947
INCLINATION    = 51.6329
RA_OF_ASC_NODE = 283.6283
ARG_OF_PERICENTER = 68.4296
MEAN_ANOMALY   = 291.7139

EPHEMERIS_TYPE = 0
CLASSIFICATION_TYPE = U
NORAD_CAT_ID   = 65077
ELEMENT_SET_NO = 999
REV_AT_EPOCH   = 214
BSTAR          = .24659261E-3
MEAN_MOTION_DOT = .13472E-3
MEAN_MOTION_DDOT = 0

CCSDS_OMM_VERS = 2.0
CREATION_DATE  = 
ORIGINATOR     = 

OBJECT_NAME    = DRAGON CRS-33
OBJECT_ID      = 2025-186A
CENTER_NAME    = EARTH
REF_FRAME      = TEME
TIME_SYSTEM    = UTC
MEAN_ELEMENT_THEORY = SGP/SGP4

EPOCH          = 2025-11-14T05:23:38.944320
MEAN_MOTION    = 15.49650045
ECCENTRICITY   = .00041947
INCLINATION    = 51.6329
RA_OF_ASC_NODE = 283.6283
ARG_OF_PERICENTER = 68.4296
MEAN_ANOMALY   = 291.7139

EPHEMERIS_TYPE = 0
CLASSIFICATION_TYPE = U
NORAD_CAT_ID   = 65304
ELEMENT_SET_NO = 999
REV_AT_EPOCH   = 11
BSTAR          = .24659261E-3
MEAN_MOTION_DOT = .13472E-3
MEAN_MOTION_DDOT = 0

