ISS (ZARYA)             
1 25544U 98067A   25320.35281829  .00017169  00000+0  31117-3 0  9999
2 25544  51.6328 273.0879 0004159  76.5981 283.5471 15.49717811538761
CSS (TIANHE)            
1 48274U 21035A   25320.31856448  .00023595  00000+0  29615-3 0  9996
2 48274  41.4652 177.0260 0006596 172.0762 188.0182 15.59141599259905
ISS (NAUKA)             
1 49044U 21066A   25318.22475630  .00013472  00000+0  24659-3 0  9999
2 49044  51.6329 283.6283 0004194  68.4296 291.7139 15.49650045230448
FREGAT DEB              
1 49271U 11037PF  25319.60740689  .00010642  00000+0  22981-1 0  9990
2 49271  51.6256 279.6718 0878579 165.3738 197.4384 12.34069817198585
CSS (WENTIAN)           
1 53239U 22085A   25318.01442622  .00031369  00000+0  36298-3 0  9991
2 53239  41.4648 191.0371 0003883  22.4689 337.6319 15.61166938173847
CSS (MENGTIAN)          
1 54216U 22143A   25318.01442622  .00031369  00000+0  36298-3 0  9992
2 54216  41.4648 191.0371 0003883  22.4689 337.6319 15.61166938158644
SOYUZ-MS 27             
1 63520U 25072A   25318.22475630  .00013472  00000+0  24659-3 0  9995
2 63520  51.6329 283.6283 0004194  68.4296 291.7139 15.49650045 20204
SHENZHOU-20 (SZ-20)     
1 63632U 25082A   25318.01442622  .00031369  00000+0  36298-3 0  9999
2 63632  41.4648 191.0371 0003883  22.4689 337.6319 15.61166938255307
PROGRESS-MS 31          
1 64751U 25146A   25318.22475630  .00013472  00000+0  24659-3 0  9994
2 64751  51.6329 283.6283 0004194  68.4296 291.7139 15.49650045  6755
TIANZHOU-9              
1 64786U 25149A   25318.01442622  .00031369  00000+0  36298-3 0  9994
2 64786  41.4648 191.0371 0003883  22.4689 337.6319 15.61166938255308
CREW DRAGON 11          
1 65077U 25166A   25318.22475630  .00013472  00000+0  24659-3 0  9998
2 65077  51.6329 283.6283 0004194  68.4296 291.7139 15.49650045  2146
DRAGON CRS-33           
1 65304U 25186A   25318.22475630  .00013472  00000+0  24659-3 0  9993
2 65304  51.6329 283.6283 0004194  68.4296 291.7139 15.49650045   114
